{"fetched_at":"2026-03-29T02:12:04Z","count":15717,"tles":[{"name":"STARLINK-35686","line1":"1 66407U 25257AD  26087.42751459  .00017993  00000+0  61870-3 0  9997","line2":"2 66407  53.1598 129.8885 0001438  74.4729 285.6431 15.30171552 22605","category":"Starlink"}]}